GLOBALSTAR M045         
1 25676U 99019A   24120.23747127 -.00000058  00000+0  31731-3 0  9997
2 25676  51.9991  45.0850 0000922  93.7929  72.7043 12.27036583142812
GLOBALSTAR M019         
1 25677U 99019B   24119.99897403 -.00000116  00000+0 -27494-3 0  9999
2 25677  51.9845 146.9927 0001165 202.1369 229.1916 12.13853950135034
GLOBALSTAR M042         
1 25679U 99019D   24119.82137566 -.00000061  00000+0  29502-3 0  9990
2 25679  51.9988 140.6966 0003015 164.4950   6.7660 12.22060682134597
GLOBALSTAR M025         
1 25770U 99031A   24119.55932964 -.00000057  00000+0  32738-3 0  9991
2 25770  51.9849  39.7776 0001251 155.4905  15.3903 11.22550484435146
GLOBALSTAR M047         
1 25772U 99031C   24119.89685694 -.00000069  00000+0  48365-5 0  9993
2 25772  51.9821  89.4878 0016402 272.3223  87.5704 11.31920378424195
